[{"OBJECT_NAME":"STARLINK-4637","OBJECT_ID":"2022-107AU","EPOCH":"2026-03-09T19:36:51.780672","MEAN_MOTION":15.08847365,"ECCENTRICITY":0.00014619,"INCLINATION":53.216,"RA_OF_ASC_NODE":263.4826,"ARG_OF_PERICENTER":88.8421,"MEAN_ANOMALY":271.2739,"EPHEMERIS_TYPE":0,"CLASSIFICATION_TYPE":"U","NORAD_CAT_ID":53742,"ELEMENT_SET_NO":999,"REV_AT_EPOCH":19461,"BSTAR":4.6017795e-5,"MEAN_MOTION_DOT":4.45e-6,"MEAN_MOTION_DDOT":0},{"OBJECT_NAME":"LEMUR-2-MARHISYAM","OBJECT_ID":"2024-149BW","EPOCH":"2026-03-09T17:46:07.876416","MEAN_MOTION":15.0901552,"ECCENTRICITY":0.00035778,"INCLINATION":97.6912,"RA_OF_ASC_NODE":151.2662,"ARG_OF_PERICENTER":107.3271,"MEAN_ANOMALY":252.8349,"EPHEMERIS_TYPE":0,"CLASSIFICATION_TYPE":"U","NORAD_CAT_ID":60536,"ELEMENT_SET_NO":999,"REV_AT_EPOCH":8547,"BSTAR":0.00082973442,"MEAN_MOTION_DOT":0.00013075,"MEAN_MOTION_DDOT":0}]
