STARLINK-4637           
1 53742U 22107AU  26068.81726598  .00000445  00000+0  46018-4 0  9996
2 53742  53.2160 263.4826 0001462  88.8421 271.2739 15.08847365194614
LEMUR-2-MARHISYAM       
1 60536U 24149BW  26068.74036894  .00013075  00000+0  82973-3 0  9990
2 60536  97.6912 151.2662 0003578 107.3271 252.8349 15.09015520 85478
